[{"OBJECT_NAME":"HAWK-7A","OBJECT_ID":"2023-054P","EPOCH":"2026-03-09T16:32:19.096224","MEAN_MOTION":15.26207271,"ECCENTRICITY":0.0004249,"INCLINATION":97.2827,"RA_OF_ASC_NODE":318.5579,"ARG_OF_PERICENTER":51.2619,"MEAN_ANOMALY":308.8999,"EPHEMERIS_TYPE":0,"CLASSIFICATION_TYPE":"U","NORAD_CAT_ID":56191,"ELEMENT_SET_NO":999,"REV_AT_EPOCH":16184,"BSTAR":0.00030248406,"MEAN_MOTION_DOT":7.758e-5,"MEAN_MOTION_DDOT":0},{"OBJECT_NAME":"STARLINK-36459","OBJECT_ID":"2026-005Z","EPOCH":"2026-03-08T21:47:44.345760","MEAN_MOTION":15.27551516,"ECCENTRICITY":0.00014883,"INCLINATION":43.0005,"RA_OF_ASC_NODE":242.6774,"ARG_OF_PERICENTER":264.8725,"MEAN_ANOMALY":95.1957,"EPHEMERIS_TYPE":0,"CLASSIFICATION_TYPE":"U","NORAD_CAT_ID":67427,"ELEMENT_SET_NO":999,"REV_AT_EPOCH":856,"BSTAR":0.0012378071,"MEAN_MOTION_DOT":0.00033927,"MEAN_MOTION_DDOT":0}]
